start=new Date('2022-08-02T00:00:00.000Z').valueOf();
sats=[{"MEAN_ELEMENT_THEORY":"SGP4","CENTER_NAME":"EARTH","OBJECT_ID":"2022-022F","INCLINATION":"53.2164","MEAN_MOTION_DOT":"-0.00001964","TLE_LINE2":"2 51857  53.2164 165.8461 0001968  70.3440 331.4490 15.08856340  1300","ARG_OF_PERICENTER":"70.3440","DECAY_DATE":null,"MEAN_MOTION":"15.08856340","REF_FRAME":"TEME","LAUNCH_DATE":"2022-03-03","COUNTRY_CODE":"US","MEAN_ANOMALY":"331.4490","CLASSIFICATION_TYPE":"U","EPHEMERIS_TYPE":"0","RA_OF_ASC_NODE":"165.8461","OBJECT_TYPE":"PAYLOAD","PERIOD":"95.437","TIME_SYSTEM":"UTC","SEMIMAJOR_AXIS":"6917.830","APOAPSIS":"541.057","FILE":"3527139","TLE_LINE1":"1 51857U 22022F   22213.91667824 -.00001964  00000-0 -10529-3 0  9999","BSTAR":"-0.00010529000000","RCS_SIZE":"LARGE","ECCENTRICITY":"0.00019680","NORAD_CAT_ID":"51857","PERIAPSIS":"538.334","REV_AT_EPOCH":"130","MEAN_MOTION_DDOT":"0.0000000000000","ELEMENT_SET_NO":"999","SITE":"AFETR","GP_ID":"209390230","OBJECT_NAME":"STARLINK-3571","EPOCH":"2022-08-01T22:00:00.999936"},{"OBJECT_ID":"2022-022G","MEAN_ELEMENT_THEORY":"SGP4","CENTER_NAME":"EARTH","INCLINATION":"53.2167","MEAN_MOTION_DOT":"-0.00002391","TLE_LINE2":"2 51858  53.2167 165.8478 0002268  65.3393 316.3960 15.08850575  1305","ARG_OF_PERICENTER":"65.3393","REF_FRAME":"TEME","LAUNCH_DATE":"2022-03-03","DECAY_DATE":null,"MEAN_MOTION":"15.08850575","MEAN_ANOMALY":"316.3960","COUNTRY_CODE":"US","CLASSIFICATION_TYPE":"U","EPHEMERIS_TYPE":"0","RA_OF_ASC_NODE":"165.8478","OBJECT_TYPE":"PAYLOAD","PERIOD":"95.437","TIME_SYSTEM":"UTC","APOAPSIS":"541.282","SEMIMAJOR_AXIS":"6917.848","FILE":"3527139","TLE_LINE1":"1 51858U 22022G   22213.91667824 -.00002391  00000-0 -13213-3 0  9998","RCS_SIZE":"LARGE","BSTAR":"-0.00013213000000","NORAD_CAT_ID":"51858","ECCENTRICITY":"0.00022680","PERIAPSIS":"538.144","REV_AT_EPOCH":"130","MEAN_MOTION_DDOT":"0.0000000000000","ELEMENT_SET_NO":"999","GP_ID":"209390480","SITE":"AFETR","OBJECT_NAME":"STARLINK-3563","EPOCH":"2022-08-01T22:00:00.999936"},{"MEAN_MOTION_DDOT":"0.0000000000000","ELEMENT_SET_NO":"999","EPOCH":"2022-08-01T22:00:00.999936","OBJECT_NAME":"STARLINK-3560","SITE":"AFETR","GP_ID":"209391730","PERIAPSIS":"538.152","ECCENTRICITY":"0.00021280","NORAD_CAT_ID":"51859","REV_AT_EPOCH":"130","BSTAR":"-0.00203610000000","RCS_SIZE":"LARGE","FILE":"3527139","TLE_LINE1":"1 51859U 22022H   22213.91667824 -.00032583  00000-0 -20361-2 0  9996","SEMIMAJOR_AXIS":"6917.759","APOAPSIS":"541.096","EPHEMERIS_TYPE":"0","PERIOD":"95.435","TIME_SYSTEM":"UTC","OBJECT_TYPE":"PAYLOAD","RA_OF_ASC_NODE":"155.8447","MEAN_MOTION":"15.08879664","DECAY_DATE":null,"LAUNCH_DATE":"2022-03-03","REF_FRAME":"TEME","CLASSIFICATION_TYPE":"U","MEAN_ANOMALY":"232.8134","COUNTRY_CODE":"US","ARG_OF_PERICENTER":"63.8933","TLE_LINE2":"2 51859  53.2160 155.8447 0002128  63.8933 232.8134 15.08879664  1307","CENTER_NAME":"EARTH","MEAN_ELEMENT_THEORY":"SGP4","OBJECT_ID":"2022-022H","MEAN_MOTION_DOT":"-0.00032583","INCLINATION":"53.2160"},{"MEAN_MOTION_DDOT":"0.0000000000000","ELEMENT_SET_NO":"999","EPOCH":"2022-08-01T22:00:00.999936","OBJECT_NAME":"STARLINK-3559","GP_ID":"209391472","SITE":"AFETR","PERIAPSIS":"538.537","ECCENTRICITY":"0.00017410","NORAD_CAT_ID":"51860","REV_AT_EPOCH":"130","BSTAR":"-0.00066186000000","RCS_SIZE":"LARGE","TLE_LINE1":"1 51860U 22022J   22213.91667824 -.00010807  00000-0 -66186-3 0  9999","FILE":"3527139","SEMIMAJOR_AXIS":"6917.876","APOAPSIS":"540.946","EPHEMERIS_TYPE":"0","PERIOD":"95.437","TIME_SYSTEM":"UTC","RA_OF_ASC_NODE":"155.8412","OBJECT_TYPE":"PAYLOAD","DECAY_DATE":null,"MEAN_MOTION":"15.08841364","REF_FRAME":"TEME","LAUNCH_DATE":"2022-03-03","CLASSIFICATION_TYPE":"U","COUNTRY_CODE":"US","MEAN_ANOMALY":"192.3482","ARG_OF_PERICENTER":"64.4327","TLE_LINE2":"2 51860  53.2169 155.8412 0001741  64.4327 192.3482 15.08841364  1306","CENTER_NAME":"EARTH","MEAN_ELEMENT_THEORY":"SGP4","OBJECT_ID":"2022-022J","MEAN_MOTION_DOT":"-0.00010807","INCLINATION":"53.2169"},{"MEAN_MOTION_DDOT":"0.0000000000000","ELEMENT_SET_NO":"999","OBJECT_NAME":"STARLINK-3562","EPOCH":"2022-08-01T22:00:00.999936","SITE":"AFETR","GP_ID":"209390729","PERIAPSIS":"537.952","ECCENTRICITY":"0.00025220","NORAD_CAT_ID":"51861","REV_AT_EPOCH":"130","BSTAR":"-0.00055711000000","RCS_SIZE":"LARGE","FILE":"3527139","TLE_LINE1":"1 51861U 22022K   22213.91667824 -.00009148  00000-0 -55711-3 0  9998","SEMIMAJOR_AXIS":"6917.832","APOAPSIS":"541.442","EPHEMERIS_TYPE":"0","TIME_SYSTEM":"UTC","PERIOD":"95.437","OBJECT_TYPE":"PAYLOAD","RA_OF_ASC_NODE":"155.8478","MEAN_MOTION":"15.08855842","DECAY_DATE":null,"REF_FRAME":"TEME","LAUNCH_DATE":"2022-03-03","CLASSIFICATION_TYPE":"U","COUNTRY_CODE":"US","MEAN_ANOMALY":"278.6824","ARG_OF_PERICENTER":"58.1097","TLE_LINE2":"2 51861  53.2160 155.8478 0002522  58.1097 278.6824 15.08855842  1306","MEAN_ELEMENT_THEORY":"SGP4","CENTER_NAME":"EARTH","OBJECT_ID":"2022-022K","MEAN_MOTION_DOT":"-0.00009148","INCLINATION":"53.2160"},{"TLE_LINE1":"1 51862U 22022L   22213.91667824 -.00009576  00000-0 -58410-3 0  9993","FILE":"3527139","RCS_SIZE":"LARGE","BSTAR":"-0.00058410000000","APOAPSIS":"540.994","SEMIMAJOR_AXIS":"6917.838","SITE":"AFETR","GP_ID":"209390980","OBJECT_NAME":"STARLINK-3508","EPOCH":"2022-08-01T22:00:00.999936","MEAN_MOTION_DDOT":"0.0000000000000","ELEMENT_SET_NO":"999","REV_AT_EPOCH":"130","NORAD_CAT_ID":"51862","ECCENTRICITY":"0.00018660","PERIAPSIS":"538.412","TLE_LINE2":"2 51862  53.2184 155.8421 0001866  65.7924 210.9603 15.08853765  1300","ARG_OF_PERICENTER":"65.7924","INCLINATION":"53.2184","MEAN_MOTION_DOT":"-0.00009576","OBJECT_ID":"2022-022L","CENTER_NAME":"EARTH","MEAN_ELEMENT_THEORY":"SGP4","OBJECT_TYPE":"PAYLOAD","RA_OF_ASC_NODE":"155.8421","PERIOD":"95.437","TIME_SYSTEM":"UTC","EPHEMERIS_TYPE":"0","COUNTRY_CODE":"US","MEAN_ANOMALY":"210.9603","CLASSIFICATION_TYPE":"U","REF_FRAME":"TEME","LAUNCH_DATE":"2022-03-03","DECAY_DATE":null,"MEAN_MOTION":"15.08853765"},{"OBJECT_TYPE":"PAYLOAD","RA_OF_ASC_NODE":"155.8585","TIME_SYSTEM":"UTC","PERIOD":"95.437","EPHEMERIS_TYPE":"0","COUNTRY_CODE":"US","MEAN_ANOMALY":"315.8267","CLASSIFICATION_TYPE":"U","REF_FRAME":"TEME","LAUNCH_DATE":"2022-03-03","MEAN_MOTION":"15.08852941","DECAY_DATE":null,"TLE_LINE2":"2 51863  53.2160 155.8585 0002419  60.9399 315.8267 15.08852941  1300","ARG_OF_PERICENTER":"60.9399","INCLINATION":"53.2160","MEAN_MOTION_DOT":"-0.00010356","OBJECT_ID":"2022-022M","MEAN_ELEMENT_THEORY":"SGP4","CENTER_NAME":"EARTH","GP_ID":"209391231","SITE":"AFETR","OBJECT_NAME":"STARLINK-3555","EPOCH":"2022-08-01T22:00:00.999936","MEAN_MOTION_DDOT":"0.0000000000000","ELEMENT_SET_NO":"999","REV_AT_EPOCH":"130","NORAD_CAT_ID":"51863","ECCENTRICITY":"0.00024190","PERIAPSIS":"538.032","FILE":"3527139","TLE_LINE1":"1 51863U 22022M   22213.91667824 -.00010356  00000-0 -63324-3 0  9992","RCS_SIZE":"LARGE","BSTAR":"-0.00063324000000","APOAPSIS":"541.379","SEMIMAJOR_AXIS":"6917.841"},{"ELEMENT_SET_NO":"999","MEAN_MOTION_DDOT":"0.0000000000000","SITE":"AFETR","GP_ID":"209391972","OBJECT_NAME":"STARLINK-3548","EPOCH":"2022-08-01T22:00:00.999936","ECCENTRICITY":"0.00022560","NORAD_CAT_ID":"51864","PERIAPSIS":"538.147","REV_AT_EPOCH":"130","TLE_LINE1":"1 51864U 22022N   22213.91667824 -.00009436  00000-0 -57530-3 0  9992","FILE":"3527139","BSTAR":"-0.00057530000000","RCS_SIZE":"LARGE","SEMIMAJOR_AXIS":"6917.843","APOAPSIS":"541.268","EPHEMERIS_TYPE":"0","OBJECT_TYPE":"PAYLOAD","RA_OF_ASC_NODE":"155.8481","TIME_SYSTEM":"UTC","PERIOD":"95.437","DECAY_DATE":null,"MEAN_MOTION":"15.08852336","LAUNCH_DATE":"2022-03-03","REF_FRAME":"TEME","MEAN_ANOMALY":"252.5833","COUNTRY_CODE":"US","CLASSIFICATION_TYPE":"U","TLE_LINE2":"2 51864  53.2172 155.8481 0002256  64.1927 252.5833 15.08852336  1305","ARG_OF_PERICENTER":"64.1927","MEAN_ELEMENT_THEORY":"SGP4","CENTER_NAME":"EARTH","OBJECT_ID":"2022-022N","INCLINATION":"53.2172","MEAN_MOTION_DOT":"-0.00009436"},{"SEMIMAJOR_AXIS":"6917.853","APOAPSIS":"541.404","BSTAR":"-0.00071455000000","RCS_SIZE":"LARGE","TLE_LINE1":"1 51865U 22022P   22213.91667824 -.00011646  00000-0 -71455-3 0  9991","FILE":"3527139","REV_AT_EPOCH":"130","PERIAPSIS":"538.032","ECCENTRICITY":"0.00024370","NORAD_CAT_ID":"51865","EPOCH":"2022-08-01T22:00:00.999936","OBJECT_NAME":"STARLINK-3503","SITE":"AFETR","GP_ID":"209390231","ELEMENT_SET_NO":"999","MEAN_MOTION_DDOT":"0.0000000000000","MEAN_MOTION_DOT":"-0.00011646","INCLINATION":"53.2164","CENTER_NAME":"EARTH","MEAN_ELEMENT_THEORY":"SGP4","OBJECT_ID":"2022-022P","ARG_OF_PERICENTER":"52.7354","TLE_LINE2":"2 51865  53.2164 155.8634 0002437  52.7354   4.0336 15.08849023  1302","CLASSIFICATION_TYPE":"U","COUNTRY_CODE":"US","MEAN_ANOMALY":"4.0336","MEAN_MOTION":"15.08849023","DECAY_DATE":null,"LAUNCH_DATE":"2022-03-03","REF_FRAME":"TEME","PERIOD":"95.437","TIME_SYSTEM":"UTC","OBJECT_TYPE":"PAYLOAD","RA_OF_ASC_NODE":"155.8634","EPHEMERIS_TYPE":"0"},{"INCLINATION":"53.2151","MEAN_MOTION_DOT":"-0.00010718","OBJECT_ID":"2022-022Q","CENTER_NAME":"EARTH","MEAN_ELEMENT_THEORY":"SGP4","TLE_LINE2":"2 51866  53.2151 155.8514 0002479  60.3901 296.3862 15.08853634  1308","ARG_OF_PERICENTER":"60.3901","MEAN_ANOMALY":"296.3862","COUNTRY_CODE":"US","CLASSIFICATION_TYPE":"U","REF_FRAME":"TEME","LAUNCH_DATE":"2022-03-03","MEAN_MOTION":"15.08853634","DECAY_DATE":null,"OBJECT_TYPE":"PAYLOAD","RA_OF_ASC_NODE":"155.8514","TIME_SYSTEM":"UTC","PERIOD":"95.437","EPHEMERIS_TYPE":"0","APOAPSIS":"541.419","SEMIMAJOR_AXIS":"6917.839","TLE_LINE1":"1 51866U 22022Q   22213.91667824 -.00010718  00000-0 -65602-3 0  9998","FILE":"3527139","RCS_SIZE":"LARGE","BSTAR":"-0.00065602000000","REV_AT_EPOCH":"130","NORAD_CAT_ID":"51866","ECCENTRICITY":"0.00024790","PERIAPSIS":"537.989","GP_ID":"209390481","SITE":"AFETR","OBJECT_NAME":"STARLINK-3553","EPOCH":"2022-08-01T22:00:00.999936","MEAN_MOTION_DDOT":"0.0000000000000","ELEMENT_SET_NO":"999"}];
